NORAD_CAT_ID,OBJECT_NAME,OBJECT_TYPE,EPOCH,MEAN_MOTION,ECCENTRICITY,INCLINATION,RA_OF_ASC_NODE,ARG_OF_PERICENTER,MEAN_ANOMALY,BSTAR,MEAN_MOTION_DOT,MEAN_MOTION_DDOT,TLE_LINE0,TLE_LINE1,TLE_LINE2,SEMIMAJOR_AXIS,PERIOD,APOGEE,PERIGEE,DECAYED
49725.0,STARLINK-3218,PAYLOAD,2022-03-17 22:00:00,15.08857648,0.0001876,53.2173,190.8569,40.2382,116.8818,-0.0022728,-0.00036296,0.0,0 STARLINK-3218,1 49725U 21115B   22076.91667824 -.00036296  00000-0 -22728-2 0  9998,2 49725  53.2173 190.8569 0001876  40.2382 116.8818 15.08857648  3603,6917.826,95.436,540.989,538.394,0.0
49725.0,STARLINK-3218,PAYLOAD,2022-03-18 04:00:00,15.08817237,0.0001686,53.2173,189.7335,43.6586,32.1768,0.003182,0.00050686,0.0,0 STARLINK-3218,1 49725U 21115B   22077.16667824  .00050686  00000-0  31820-2 0  9996,2 49725  53.2173 189.7335 0001686  43.6586  32.1768 15.08817237 17365,6917.95,95.439,540.981,538.649,0.0
49725.0,STARLINK-3218,PAYLOAD,2022-03-18 14:00:01,15.08856354,0.0001871,53.2174,187.8648,40.8884,139.4353,-0.0015692,-0.00025187,0.0,0 STARLINK-3218,1 49725U 21115B   22077.58334491 -.00025187  00000-0 -15692-2 0  9992,2 49725  53.2174 187.8648 0001871  40.8884 139.4353 15.08856354  3615,6917.83,95.437,540.99,538.401,0.0
49725.0,STARLINK-3218,PAYLOAD,2022-03-18 20:00:01,15.08847127,0.0001866,53.217,186.7426,36.3893,62.6389,-0.0013924,-0.00022384,0.0,0 STARLINK-3218,1 49725U 21115B   22077.83334491 -.00022384  00000-0 -13924-2 0  9992,2 49725  53.2170 186.7426 0001866  36.3893  62.6389 15.08847127 17469,6917.859,95.437,541.014,538.433,0.0
49725.0,STARLINK-3218,PAYLOAD,2022-03-18 22:00:00,15.08851349,0.0001809,53.217,186.368,37.545,154.3818,-0.0025758,-0.00041062,0.0,0 STARLINK-3218,1 49725U 21115B   22077.91667824 -.00041062  00000-0 -25758-2 0  9992,2 49725  53.2170 186.3680 0001809  37.5450 154.3818 15.08851349  3604,6917.846,95.437,540.962,538.4590000000002,0.0
49725.0,STARLINK-3218,PAYLOAD,2022-03-19 12:00:00,15.08846355,0.0001813,53.2171,183.7497,39.459,82.7417,-0.0013567,-0.00021819,0.0,0 STARLINK-3218,1 49725U 21115B   22078.50001157 -.00021819  00000-0 -13567-2 0  9992,2 49725  53.2171 183.7497 0001813  39.4590  82.7417 15.08846355 17563,6917.861,95.437,540.98,538.472,0.0
49725.0,STARLINK-3218,PAYLOAD,2022-03-19 14:00:01,15.08834301,0.0001878,53.2171,183.376,38.0027,177.0998,0.00010934,1.452e-05,0.0,0 STARLINK-3218,1 49725U 21115B   22078.58334491  .00001452  00000-0  10934-3 0  9995,2 49725  53.2171 183.3760 0001878  38.0027 177.0998 15.08834301  3591,6917.898,95.438,541.062,538.464,0.0
49725.0,STARLINK-3218,PAYLOAD,2022-03-19 22:00:01,15.08869958,0.0001823,53.2169,181.879,35.8648,190.8824,-0.0038866,-0.00061665,0.0,0 STARLINK-3218,1 49725U 21115B   22078.91668981 -.00061665  00000-0 -38866-2 0  9993,2 49725  53.2169 181.8790 0001823  35.8648 190.8824 15.08869958  3618,6917.7890000000025,95.436,540.915,538.393,0.0
49725.0,STARLINK-3218,PAYLOAD,2022-03-20 04:00:00,15.08813067,0.0001676999999999,53.2169,180.7557,37.9438,107.4572,0.0016831,0.0002658,0.0,0 STARLINK-3218,1 49725U 21115B   22079.16667824  .00026580  00000-0  16831-2 0  9999,2 49725  53.2169 180.7557 0001677  37.9438 107.4572 15.08813067 17679,6917.9630000000025,95.439,540.988,538.668,0.0
49725.0,STARLINK-3218,PAYLOAD,2022-03-20 14:00:01,15.0882372,0.0001917,53.217,178.8871,35.3291,214.5418,0.00043891,6.701e-05,0.0,0 STARLINK-3218,1 49725U 21115B   22079.58334491  .00006701  00000-0  43891-3 0  9996,2 49725  53.2170 178.8871 0001917  35.3291 214.5418 15.08823720  3585,6917.93,95.439,541.121,538.469,0.0
49725.0,STARLINK-3218,PAYLOAD,2022-03-20 22:00:01,15.08858617,0.0001869,53.2169,177.39,34.0522,227.4644,-0.0016047999999999,-0.00025751,0.0,0 STARLINK-3218,1 49725U 21115B   22079.91668981 -.00025751  00000-0 -16048-2 0  9998,2 49725  53.2169 177.3900 0001869  34.0522 227.4644 15.08858617  3609,6917.823,95.436,540.981,538.396,0.0
49725.0,STARLINK-3218,PAYLOAD,2022-03-21 04:00:00,15.08826501,0.0001754999999999,53.2169,176.2666,37.8743,142.2863,0.0028099,0.00044699,0.0,0 STARLINK-3218,1 49725U 21115B   22080.16667824  .00044699  00000-0  28099-2 0  9991,2 49725  53.2169 176.2666 0001755  37.8743 142.2863 15.08826501 17829,6917.922,95.438,541.001,538.573,0.0
49725.0,STARLINK-3218,PAYLOAD,2022-03-21 14:00:01,15.08859511,0.0001979,53.2171,174.3981,34.3314,250.3309,-0.0017710999999999,-0.0002838,0.0,0 STARLINK-3218,1 49725U 21115B   22080.58334491 -.00028380  00000-0 -17711-2 0  9998,2 49725  53.2171 174.3981 0001979  34.3314 250.3309 15.08859511  3586,6917.821,95.436,541.055,538.317,0.0
49725.0,STARLINK-3218,PAYLOAD,2022-03-21 20:00:01,15.08850893,0.0001942,53.2169,173.2754,31.3464,172.0228,-0.0016565,-0.00026563,0.0,0 STARLINK-3218,1 49725U 21115B   22080.83334491 -.00026563  00000-0 -16565-2 0  9993,2 49725  53.2169 173.2754 0001942  31.3464 172.0228 15.08850893 17929,6917.847,95.437,541.056,538.369,0.0
49725.0,STARLINK-3218,PAYLOAD,2022-03-21 22:00:00,15.08849037,0.0001868,53.217,172.9009,31.3954,264.8746,-0.0019176,-0.00030685,0.0,0 STARLINK-3218,1 49725U 21115B   22080.91667824 -.00030685  00000-0 -19176-2 0  9992,2 49725  53.2170 172.9009 0001868  31.3954 264.8746 15.08849037  3592,6917.853,95.437,541.01,538.4259999999998,0.0
49725.0,STARLINK-3218,PAYLOAD,2022-03-22 12:00:00,15.08853942,0.0001965,53.2171,170.2828,33.9154,192.6466,-0.0014705,-0.00023624,0.0,0 STARLINK-3218,1 49725U 21115B   22081.50001157 -.00023624  00000-0 -14705-2 0  9997,2 49725  53.2171 170.2828 0001965  33.9154 192.6466 15.08853942 18022,6917.8380000000025,95.437,541.062,538.3430000000002,0.0
49725.0,STARLINK-3218,PAYLOAD,2022-03-22 14:00:01,15.08848267,0.0002029,53.2172,169.90900000000005,33.5451,285.9193,-0.0010077,-0.00016294,0.0,0 STARLINK-3218,1 49725U 21115B   22081.58334491 -.00016294  00000-0 -10077-2 0  9998,2 49725  53.2172 169.9090 0002029  33.5451 285.9193 15.08848267  3590,6917.855,95.437,541.124,538.316,0.0
49725.0,STARLINK-3218,PAYLOAD,2022-03-22 22:00:01,15.08850308,0.0001976,53.217,168.4116,35.1642,295.9645,-0.0023647,-0.00037737,0.0,0 STARLINK-3218,1 49725U 21115B   22081.91668981 -.00037737  00000-0 -23647-2 0  9991,2 49725  53.2170 168.4116 0001976  35.1642 295.9645 15.08850308  3605,6917.849,95.437,541.081,538.347,0.0
49725.0,STARLINK-3218,PAYLOAD,2022-03-23 04:00:00,15.08816802,0.0001855,53.217,167.2884,39.1224,210.6413,0.002582,0.00041018,0.0,0 STARLINK-3218,1 49725U 21115B   22082.16667824  .00041018  00000-0  25820-2 0  9994,2 49725  53.2170 167.2884 0001855  39.1224 210.6413 15.08816802 18121,6917.951,95.439,541.1,538.533,0.0
49725.0,STARLINK-3218,PAYLOAD,2022-03-23 14:00:01,15.08842355,0.0002074,53.2172,165.42,34.8745,319.378,-0.00043873,-7.264e-05,0.0,0 STARLINK-3218,1 49725U 21115B   22082.58334491 -.00007264  00000-0 -43873-3 0  9997,2 49725  53.2172 165.4200 0002074  34.8745 319.3780 15.08842355  3613,6917.873000000001,95.437,541.173,538.303,0.0
49725.0,STARLINK-3218,PAYLOAD,2022-03-23 20:00:01,15.08858934,0.0001985,53.2167,164.297,32.8839,240.0657,-0.0033487,-0.00053218,0.0,0 STARLINK-3218,1 49725U 21115B   22082.83334491 -.00053218  00000-0 -33487-2 0  9994,2 49725  53.2167 164.2970 0001985  32.8839 240.0657 15.08858934 18226,6917.823,95.436,541.061,538.314,0.0
49725.0,STARLINK-3218,PAYLOAD,2022-03-23 22:00:00,15.08844475,0.0001919,53.2168,163.9224,33.9327,331.9209,-0.0021198,-0.00033871,0.0,0 STARLINK-3218,1 49725U 21115B   22082.91667824 -.00033871  00000-0 -21198-2 0  9991,2 49725  53.2168 163.9224 0001919  33.9327 331.9209 15.08844475  3611,6917.8669999999975,95.437,541.059,538.404,0.0
49725.0,STARLINK-3218,PAYLOAD,2022-03-24 04:00:00,15.08814763,0.0001794,53.217,162.7993,36.921,247.6247,0.0026568,0.0004222,0.0,0 STARLINK-3218,1 49725U 21115B   22083.16667824  .00042220  00000-0  26568-2 0  9991,2 49725  53.2170 162.7993 0001794  36.9210 247.6247 15.08814763 18279,6917.958000000001,95.439,541.064,538.581,0.0
49725.0,STARLINK-3218,PAYLOAD,2022-03-24 14:00:01,15.08825955,0.0002042,53.217,160.9311,33.8394,355.1907,0.0016177,0.00025542,0.0,0 STARLINK-3218,1 49725U 21115B   22083.58334491  .00025542  00000-0  16177-2 0  9991,2 49725  53.2170 160.9311 0002042  33.8394 355.1907 15.08825955  3580,6917.9230000000025,95.438,541.201,538.376,0.0
49725.0,STARLINK-3218,PAYLOAD,2022-03-24 22:00:00,15.08860374,0.0001954,53.2167,159.4333,36.3553,4.2666,-0.0037225,-0.0005907999999999,0.0,0 STARLINK-3218,1 49725U 21115B   22083.91667824 -.00059080  00000-0 -37225-2 0  9990,2 49725  53.2167 159.4333 0001954  36.3553   4.2666 15.08860374 18381,6917.818,95.436,541.035,538.331,0.0
49725.0,STARLINK-3218,PAYLOAD,2022-03-25 12:00:00,15.08829496,0.0002102,53.2167,156.816,37.6298,293.2743,-2.1509e-06,-3.22e-06,0.0,0 STARLINK-3218,1 49725U 21115B   22084.50001157 -.00000322  00000-0 -21509-5 0  9993,2 49725  53.2167 156.8160 0002102  37.6298 293.2743 15.08829496 18472,6917.9119999999975,95.438,541.232,538.323,0.0
49725.0,STARLINK-3218,PAYLOAD,2022-03-25 14:00:01,15.08816172,0.0002113,53.2168,156.4422,36.791,27.0127,0.0020048,0.00031742,0.0,0 STARLINK-3218,1 49725U 21115B   22084.58334491  .00031742  00000-0  20048-2 0  9993,2 49725  53.2168 156.4422 0002113  36.7910  27.0127 15.08816172  3596,6917.953,95.439,541.28,538.356,0.0
49725.0,STARLINK-3218,PAYLOAD,2022-03-25 22:00:01,15.08853121,0.0001956,53.2165,154.9443,37.5696,37.8802,-0.0035414,-0.00056231,0.0,0 STARLINK-3218,1 49725U 21115B   22084.91668981 -.00056231  00000-0 -35414-2 0  9999,2 49725  53.2165 154.9443 0001956  37.5696  37.8802 15.08853121  3609,6917.84,95.437,541.058,538.352,0.0
49725.0,STARLINK-3218,PAYLOAD,2022-03-26 14:00:01,15.08805831,0.0002104,53.2167,151.9534,34.7996,63.7548,0.0025778,0.00040938,0.0,0 STARLINK-3218,1 49725U 21115B   22085.58334491  .00040938  00000-0  25778-2 0  9996,2 49725  53.2167 151.9534 0002104  34.7996  63.7548 15.08805831  3584,6917.985,95.44,541.305,538.394,0.0
